{
  "type": "FeatureCollection",
  "features": [
    {
      "type": "Feature",
      "properties": {
        "norad_id": 29790,
        "name": "FENGYUN 1C DEB",
        "group": "fengyun-1c-debris",
        "lat": 19.25507714103465,
        "lon": -17.01928179917487,
        "alt_km": 827.3498346095703,
        "timestamp": "2025-12-17T21:39:45.958985+00:00",
        "meta_object_name": "FENGYUN 1C DEB",
        "meta_object_id": "1999-025CG",
        "meta_epoch": "2025-12-17T13:11:15.566208",
        "meta_mean_motion": 14.32276503,
        "meta_eccentricity": 0.00767084,
        "meta_inclination": 99.1474,
        "meta_ra_of_asc_node": 345.835,
        "meta_arg_of_pericenter": 162.5811,
        "meta_mean_anomaly": 197.8029,
        "meta_ephemeris_type": 0,
        "meta_classification_type": "U",
        "meta_norad_cat_id": 29790,
        "meta_element_set_no": 999,
        "meta_rev_at_epoch": 98594,
        "meta_bstar": 0.00022941062,
        "meta_mean_motion_dot": 5.91e-06,
        "meta_mean_motion_ddot": 0,
        "tle_line1": "1 29790U 99025CG  25351.54948572  .00000591  00000+0  22941-3 0  9997",
        "tle_line2": "2 29790  99.1474 345.8350 0076708 162.5811 197.8029 14.32276503985947"
      },
      "geometry": {
        "type": "Point",
        "coordinates": [
          -17.01928179917487,
          19.25507714103465
        ]
      }
    },
    {
      "type": "Feature",
      "properties": {
        "norad_id": 29791,
        "name": "FENGYUN 1C DEB",
        "group": "fengyun-1c-debris",
        "lat": 70.86742479439563,
        "lon": -34.41248566853371,
        "alt_km": 665.4376784793967,
        "timestamp": "2025-12-17T21:39:45.958994+00:00",
        "meta_object_name": "FENGYUN 1C DEB",
        "meta_object_id": "1999-025CH",
        "meta_epoch": "2025-12-17T15:17:24.860256",
        "meta_mean_motion": 14.58316907,
        "meta_eccentricity": 0.00414247,
        "meta_inclination": 99.0362,
        "meta_ra_of_asc_node": 352.6035,
        "meta_arg_of_pericenter": 47.4807,
        "meta_mean_anomaly": 72.2379,
        "meta_ephemeris_type": 0,
        "meta_classification_type": "U",
        "meta_norad_cat_id": 29791,
        "meta_element_set_no": 999,
        "meta_rev_at_epoch": 98917,
        "meta_bstar": 0.0012035739,
        "meta_mean_motion_dot": 5.582e-05,
        "meta_mean_motion_ddot": 0,
        "tle_line1": "1 29791U 99025CH  25351.63709329  .00005582  00000+0  12036-2 0  9991",
        "tle_line2": "2 29791  99.0362 352.6035 0041424  47.4807  72.2379 14.58316907989176"
      },
      "geometry": {
        "type": "Point",
        "coordinates": [
          -34.41248566853371,
          70.86742479439563
        ]
      }
    },
    {
      "type": "Feature",
      "properties": {
        "norad_id": 29792,
        "name": "FENGYUN 1C DEB",
        "group": "fengyun-1c-debris",
        "lat": 12.233667218872144,
        "lon": 40.45715150084205,
        "alt_km": 808.8420564772659,
        "timestamp": "2025-12-17T21:39:45.959003+00:00",
        "meta_object_name": "FENGYUN 1C DEB",
        "meta_object_id": "1999-025CJ",
        "meta_epoch": "2025-12-17T14:49:03.383328",
        "meta_mean_motion": 14.15178024,
        "meta_eccentricity": 0.00477172,
        "meta_inclination": 98.7575,
        "meta_ra_of_asc_node": 42.0925,
        "meta_arg_of_pericenter": 22.2213,
        "meta_mean_anomaly": 338.1014,
        "meta_ephemeris_type": 0,
        "meta_classification_type": "U",
        "meta_norad_cat_id": 29792,
        "meta_element_set_no": 999,
        "meta_rev_at_epoch": 97008,
        "meta_bstar": 0.0010177693,
        "meta_mean_motion_dot": 1.955e-05,
        "meta_mean_motion_ddot": 0,
        "tle_line1": "1 29792U 99025CJ  25351.61740027  .00001955  00000+0  10178-2 0  9995",
        "tle_line2": "2 29792  98.7575  42.0925 0047717  22.2213 338.1014 14.15178024970089"
      },
      "geometry": {
        "type": "Point",
        "coordinates": [
          40.45715150084205,
          12.233667218872144
        ]
      }
    },
    {
      "type": "Feature",
      "properties": {
        "norad_id": 29793,
        "name": "FENGYUN 1C DEB",
        "group": "fengyun-1c-debris",
        "lat": 81.47571920437284,
        "lon": 68.8531630086823,
        "alt_km": 946.0520694326233,
        "timestamp": "2025-12-17T21:39:45.959012+00:00",
        "meta_object_name": "FENGYUN 1C DEB",
        "meta_object_id": "1999-025CK",
        "meta_epoch": "2025-12-17T11:12:11.385216",
        "meta_mean_motion": 14.01092407,
        "meta_eccentricity": 0.01435893,
        "meta_inclination": 98.3536,
        "meta_ra_of_asc_node": 169.8456,
        "meta_arg_of_pericenter": 324.7842,
        "meta_mean_anomaly": 88.5855,
        "meta_ephemeris_type": 0,
        "meta_classification_type": "U",
        "meta_norad_cat_id": 29793,
        "meta_element_set_no": 999,
        "meta_rev_at_epoch": 96215,
        "meta_bstar": 0.00080179266,
        "meta_mean_motion_dot": 1.276e-05,
        "meta_mean_motion_ddot": 0,
        "tle_line1": "1 29793U 99025CK  25351.46679844  .00001276  00000+0  80179-3 0  9992",
        "tle_line2": "2 29793  98.3536 169.8456 0143589 324.7842  88.5855 14.01092407962155"
      },
      "geometry": {
        "type": "Point",
        "coordinates": [
          68.8531630086823,
          81.47571920437284
        ]
      }
    },
    {
      "type": "Feature",
      "properties": {
        "norad_id": 29794,
        "name": "FENGYUN 1C DEB",
        "group": "fengyun-1c-debris",
        "lat": -7.067979663370753,
        "lon": -30.945540558273763,
        "alt_km": 974.0208977420452,
        "timestamp": "2025-12-17T21:39:45.959022+00:00",
        "meta_object_name": "FENGYUN 1C DEB",
        "meta_object_id": "1999-025CL",
        "meta_epoch": "2025-12-17T09:09:57.919968",
        "meta_mean_motion": 14.09006409,
        "meta_eccentricity": 0.01569012,
        "meta_inclination": 98.2,
        "meta_ra_of_asc_node": 149.6047,
        "meta_arg_of_pericenter": 27.2014,
        "meta_mean_anomaly": 39.5502,
        "meta_ephemeris_type": 0,
        "meta_classification_type": "U",
        "meta_norad_cat_id": 29794,
        "meta_element_set_no": 999,
        "meta_rev_at_epoch": 96913,
        "meta_bstar": 0.00049761745,
        "meta_mean_motion_dot": 9.28e-06,
        "meta_mean_motion_ddot": 0,
        "tle_line1": "1 29794U 99025CL  25351.38192037  .00000928  00000+0  49762-3 0  9994",
        "tle_line2": "2 29794  98.2000 149.6047 0156901  27.2014  39.5502 14.09006409969136"
      },
      "geometry": {
        "type": "Point",
        "coordinates": [
          -30.945540558273763,
          -7.067979663370753
        ]
      }
    },
    {
      "type": "Feature",
      "properties": {
        "norad_id": 29795,
        "name": "FENGYUN 1C DEB",
        "group": "fengyun-1c-debris",
        "lat": -17.752726266501828,
        "lon": 123.92712118600375,
        "alt_km": 908.6426783447632,
        "timestamp": "2025-12-17T21:39:45.959031+00:00",
        "meta_object_name": "FENGYUN 1C DEB",
        "meta_object_id": "1999-025CM",
        "meta_epoch": "2025-12-17T08:13:45.200928",
        "meta_mean_motion": 13.92911574,
        "meta_eccentricity": 0.01110404,
        "meta_inclination": 98.8708,
        "meta_ra_of_asc_node": 120.5248,
        "meta_arg_of_pericenter": 263.4799,
        "meta_mean_anomaly": 152.1803,
        "meta_ephemeris_type": 0,
        "meta_classification_type": "U",
        "meta_norad_cat_id": 29795,
        "meta_element_set_no": 999,
        "meta_rev_at_epoch": 96129,
        "meta_bstar": 9.2795957e-05,
        "meta_mean_motion_dot": 8.4e-07,
        "meta_mean_motion_ddot": 0,
        "tle_line1": "1 29795U 99025CM  25351.34288427  .00000084  00000+0  92796-4 0  9999",
        "tle_line2": "2 29795  98.8708 120.5248 0111040 263.4799 152.1803 13.92911574961292"
      },
      "geometry": {
        "type": "Point",
        "coordinates": [
          123.92712118600375,
          -17.752726266501828
        ]
      }
    },
    {
      "type": "Feature",
      "properties": {
        "norad_id": 29796,
        "name": "FENGYUN 1C DEB",
        "group": "fengyun-1c-debris",
        "lat": -33.86706753408581,
        "lon": 49.73063418516024,
        "alt_km": 846.0758428681847,
        "timestamp": "2025-12-17T21:39:45.959040+00:00",
        "meta_object_name": "FENGYUN 1C DEB",
        "meta_object_id": "1999-025CN",
        "meta_epoch": "2025-12-17T14:05:45.619584",
        "meta_mean_motion": 14.1234756,
        "meta_eccentricity": 0.00520817,
        "meta_inclination": 98.8645,
        "meta_ra_of_asc_node": 43.4068,
        "meta_arg_of_pericenter": 253.9911,
        "meta_mean_anomaly": 269.0663,
        "meta_ephemeris_type": 0,
        "meta_classification_type": "U",
        "meta_norad_cat_id": 29796,
        "meta_element_set_no": 999,
        "meta_rev_at_epoch": 97129,
        "meta_bstar": 0.00056068461,
        "meta_mean_motion_dot": 1.002e-05,
        "meta_mean_motion_ddot": 0,
        "tle_line1": "1 29796U 99025CN  25351.58733356  .00001002  00000+0  56068-3 0  9994",
        "tle_line2": "2 29796  98.8645  43.4068 0052081 253.9911 269.0663 14.12347560971299"
      },
      "geometry": {
        "type": "Point",
        "coordinates": [
          49.73063418516024,
          -33.86706753408581
        ]
      }
    }
  ]
}